[{"OBJECT_NAME":"STARLINK-32649","OBJECT_ID":"2024-239E","EPOCH":"2026-03-09T15:40:31.744416","MEAN_MOTION":15.30205459,"ECCENTRICITY":9.781e-5,"INCLINATION":53.1593,"RA_OF_ASC_NODE":193.7144,"ARG_OF_PERICENTER":72.4885,"MEAN_ANOMALY":287.6223,"EPHEMERIS_TYPE":0,"CLASSIFICATION_TYPE":"U","NORAD_CAT_ID":62305,"ELEMENT_SET_NO":999,"REV_AT_EPOCH":6938,"BSTAR":0.00071067092,"MEAN_MOTION_DOT":0.00020751,"MEAN_MOTION_DDOT":0},{"OBJECT_NAME":"THOR AGENA B DEB","OBJECT_ID":"1965-098G","EPOCH":"2026-03-09T23:22:06.853152","MEAN_MOTION":13.57256453,"ECCENTRICITY":0.07679635,"INCLINATION":79.6109,"RA_OF_ASC_NODE":51.0692,"ARG_OF_PERICENTER":143.4347,"MEAN_ANOMALY":222.1845,"EPHEMERIS_TYPE":0,"CLASSIFICATION_TYPE":"U","NORAD_CAT_ID":1951,"ELEMENT_SET_NO":999,"REV_AT_EPOCH":79416,"BSTAR":0.00077607754,"MEAN_MOTION_DOT":4.232e-5,"MEAN_MOTION_DDOT":0}]
